STARLINK-36851          
1 67943U 26037M   26082.16668981 -.01898632  00000+0 -29715-1 0  9993
2 67943  42.9994 116.5928 0000841 275.7483 279.8768 15.56356017  5369
STARLINK-36892          
1 67944U 26037N   26082.16668981 -.01890298  00000+0 -28686-1 0  9990
2 67944  42.9992 116.5293 0001082 265.6877 315.9783 15.57155672  5360
STARLINK-36908          
1 67945U 26037P   26082.16668981 -.01885946  00000+0 -27722-1 0  9995
2 67945  42.9993 116.4636 0000780 276.2454 331.6478 15.57990870  5368
STARLINK-36909          
1 67946U 26037Q   26082.16668981 -.01904418  00000+0 -21746-1 0  9992
2 67946  42.9997 116.1638 0001519 274.2221  93.7824 15.64473960  5368
STARLINK-36920          
1 67947U 26037R   26082.16668981 -.01586594  00000+0 -27309-1 0  9995
2 67947  42.9997 116.7061 0001459 278.3677 231.5970 15.53203928  5365
STARLINK-36873          
1 67948U 26037S   26082.16668981 -.02013163  00000+0 -36350-1 0  9990
2 67948  43.0001 116.7722 0001478 290.0920 192.6537 15.52127742  5365
STARLINK-36863          
1 67949U 26037T   26082.16668981 -.01896498  00000+0 -29372-1 0  9996
2 67949  42.9992 116.4926 0000916 270.3833 325.4450 15.56629593  5361
STARLINK-36887          
1 67950U 26037U   26082.16668981 -.00107230  00000+0 -18450-2 0  9992
2 67950  42.9989 117.3846 0001285 267.7128 327.0923 15.50611562  5361
STARLINK-36897          
1 67951U 26037V   26082.16668981 -.01896699  00000+0 -30526-1 0  9995
2 67951  42.9995 116.5268 0001047 272.1524 309.3955 15.55605163  5367
STARLINK-36381          
1 67952U 26037W   26082.16668981 -.01893121  00000+0 -32197-1 0  9999
2 67952  42.9992 116.5924 0001019 279.4808 275.7844 15.54113751  5367
STARLINK-36824          
1 67953U 26037X   26082.16668981  .00047723  00000+0  81605-3 0  9996
2 67953  42.9990 117.2247 0001073 269.5747  29.6417 15.50520078  5366
STARLINK-36869          
1 67954U 26037Y   26082.16668981  .00047863  00000+0  81842-3 0  9995
2 67954  42.9990 117.2168 0001097 284.0447  18.0149 15.50519607  5364
STARLINK-36872          
1 67955U 26037Z   26082.16668981 -.01883844  00000+0 -27815-1 0  9994
2 67955  42.9992 116.3496 0001003 264.5200  27.8144 15.57867527  5365
STARLINK-36918          
1 67956U 26037AA  26082.16668981 -.01888814  00000+0 -31719-1 0  9995
2 67956  42.9990 116.5285 0001075 276.0107 304.4047 15.54447575  5365
STARLINK-36829          
1 67957U 26037AB  26082.16668981 -.00257068  00000+0 -45046-2 0  9995
2 67957  42.9996 116.7610 0001055 283.2069 203.0208 15.50683978  5369
STARLINK-36799          
1 67958U 26037AC  26082.16668981 -.01901645  00000+0 -25555-1 0  9996
2 67958  42.9997 116.2082 0001215 268.1306  81.4582 15.60347516  5362
