[{"OBJECT_NAME":"STARLINK-36851","OBJECT_ID":"2026-037M","EPOCH":"2026-03-23T04:00:01.999584","MEAN_MOTION":15.56356017,"ECCENTRICITY":8.417e-5,"INCLINATION":42.9994,"RA_OF_ASC_NODE":116.5928,"ARG_OF_PERICENTER":275.7483,"MEAN_ANOMALY":279.8768,"EPHEMERIS_TYPE":0,"CLASSIFICATION_TYPE":"U","NORAD_CAT_ID":67943,"ELEMENT_SET_NO":999,"REV_AT_EPOCH":536,"BSTAR":-0.029715059,"MEAN_MOTION_DOT":-0.01898632,"MEAN_MOTION_DDOT":0},{"OBJECT_NAME":"STARLINK-36892","OBJECT_ID":"2026-037N","EPOCH":"2026-03-23T04:00:01.999584","MEAN_MOTION":15.57155672,"ECCENTRICITY":0.00010821,"INCLINATION":42.9992,"RA_OF_ASC_NODE":116.5293,"ARG_OF_PERICENTER":265.6877,"MEAN_ANOMALY":315.9783,"EPHEMERIS_TYPE":0,"CLASSIFICATION_TYPE":"U","NORAD_CAT_ID":67944,"ELEMENT_SET_NO":999,"REV_AT_EPOCH":536,"BSTAR":-0.028686251,"MEAN_MOTION_DOT":-0.01890298,"MEAN_MOTION_DDOT":0},{"OBJECT_NAME":"STARLINK-36908","OBJECT_ID":"2026-037P","EPOCH":"2026-03-23T04:00:01.999584","MEAN_MOTION":15.5799087,"ECCENTRICITY":7.809e-5,"INCLINATION":42.9993,"RA_OF_ASC_NODE":116.4636,"ARG_OF_PERICENTER":276.2454,"MEAN_ANOMALY":331.6478,"EPHEMERIS_TYPE":0,"CLASSIFICATION_TYPE":"U","NORAD_CAT_ID":67945,"ELEMENT_SET_NO":999,"REV_AT_EPOCH":536,"BSTAR":-0.027721657,"MEAN_MOTION_DOT":-0.01885946,"MEAN_MOTION_DDOT":0},{"OBJECT_NAME":"STARLINK-36909","OBJECT_ID":"2026-037Q","EPOCH":"2026-03-23T04:00:01.999584","MEAN_MOTION":15.6447396,"ECCENTRICITY":0.00015199,"INCLINATION":42.9997,"RA_OF_ASC_NODE":116.1638,"ARG_OF_PERICENTER":274.2221,"MEAN_ANOMALY":93.7824,"EPHEMERIS_TYPE":0,"CLASSIFICATION_TYPE":"U","NORAD_CAT_ID":67946,"ELEMENT_SET_NO":999,"REV_AT_EPOCH":536,"BSTAR":-0.021746261,"MEAN_MOTION_DOT":-0.01904418,"MEAN_MOTION_DDOT":0},{"OBJECT_NAME":"STARLINK-36920","OBJECT_ID":"2026-037R","EPOCH":"2026-03-23T04:00:01.999584","MEAN_MOTION":15.53203928,"ECCENTRICITY":0.00014593,"INCLINATION":42.9997,"RA_OF_ASC_NODE":116.7061,"ARG_OF_PERICENTER":278.3677,"MEAN_ANOMALY":231.597,"EPHEMERIS_TYPE":0,"CLASSIFICATION_TYPE":"U","NORAD_CAT_ID":67947,"ELEMENT_SET_NO":999,"REV_AT_EPOCH":536,"BSTAR":-0.027309242,"MEAN_MOTION_DOT":-0.01586594,"MEAN_MOTION_DDOT":0},{"OBJECT_NAME":"STARLINK-36873","OBJECT_ID":"2026-037S","EPOCH":"2026-03-23T04:00:01.999584","MEAN_MOTION":15.52127742,"ECCENTRICITY":0.00014782,"INCLINATION":43.0001,"RA_OF_ASC_NODE":116.7722,"ARG_OF_PERICENTER":290.092,"MEAN_ANOMALY":192.6537,"EPHEMERIS_TYPE":0,"CLASSIFICATION_TYPE":"U","NORAD_CAT_ID":67948,"ELEMENT_SET_NO":999,"REV_AT_EPOCH":536,"BSTAR":-0.03634988,"MEAN_MOTION_DOT":-0.02013163,"MEAN_MOTION_DDOT":0},{"OBJECT_NAME":"STARLINK-36863","OBJECT_ID":"2026-037T","EPOCH":"2026-03-23T04:00:01.999584","MEAN_MOTION":15.56629593,"ECCENTRICITY":9.16e-5,"INCLINATION":42.9992,"RA_OF_ASC_NODE":116.4926,"ARG_OF_PERICENTER":270.3833,"MEAN_ANOMALY":325.445,"EPHEMERIS_TYPE":0,"CLASSIFICATION_TYPE":"U","NORAD_CAT_ID":67949,"ELEMENT_SET_NO":999,"REV_AT_EPOCH":536,"BSTAR":-0.029372358,"MEAN_MOTION_DOT":-0.01896498,"MEAN_MOTION_DDOT":0},{"OBJECT_NAME":"STARLINK-36887","OBJECT_ID":"2026-037U","EPOCH":"2026-03-23T04:00:01.999584","MEAN_MOTION":15.50611562,"ECCENTRICITY":0.00012856,"INCLINATION":42.9989,"RA_OF_ASC_NODE":117.3846,"ARG_OF_PERICENTER":267.7128,"MEAN_ANOMALY":327.0923,"EPHEMERIS_TYPE":0,"CLASSIFICATION_TYPE":"U","NORAD_CAT_ID":67950,"ELEMENT_SET_NO":999,"REV_AT_EPOCH":536,"BSTAR":-0.001844967,"MEAN_MOTION_DOT":-0.0010723,"MEAN_MOTION_DDOT":0},{"OBJECT_NAME":"STARLINK-36897","OBJECT_ID":"2026-037V","EPOCH":"2026-03-23T04:00:01.999584","MEAN_MOTION":15.55605163,"ECCENTRICITY":0.00010477,"INCLINATION":42.9995,"RA_OF_ASC_NODE":116.5268,"ARG_OF_PERICENTER":272.1524,"MEAN_ANOMALY":309.3955,"EPHEMERIS_TYPE":0,"CLASSIFICATION_TYPE":"U","NORAD_CAT_ID":67951,"ELEMENT_SET_NO":999,"REV_AT_EPOCH":536,"BSTAR":-0.030525853,"MEAN_MOTION_DOT":-0.01896699,"MEAN_MOTION_DDOT":0},{"OBJECT_NAME":"STARLINK-36381","OBJECT_ID":"2026-037W","EPOCH":"2026-03-23T04:00:01.999584","MEAN_MOTION":15.54113751,"ECCENTRICITY":0.00010193,"INCLINATION":42.9992,"RA_OF_ASC_NODE":116.5924,"ARG_OF_PERICENTER":279.4808,"MEAN_ANOMALY":275.7844,"EPHEMERIS_TYPE":0,"CLASSIFICATION_TYPE":"U","NORAD_CAT_ID":67952,"ELEMENT_SET_NO":999,"REV_AT_EPOCH":536,"BSTAR":-0.032196965,"MEAN_MOTION_DOT":-0.01893121,"MEAN_MOTION_DDOT":0},{"OBJECT_NAME":"STARLINK-36824","OBJECT_ID":"2026-037X","EPOCH":"2026-03-23T04:00:01.999584","MEAN_MOTION":15.50520078,"ECCENTRICITY":0.00010738,"INCLINATION":42.999,"RA_OF_ASC_NODE":117.2247,"ARG_OF_PERICENTER":269.5747,"MEAN_ANOMALY":29.6417,"EPHEMERIS_TYPE":0,"CLASSIFICATION_TYPE":"U","NORAD_CAT_ID":67953,"ELEMENT_SET_NO":999,"REV_AT_EPOCH":536,"BSTAR":0.00081605037,"MEAN_MOTION_DOT":0.00047723,"MEAN_MOTION_DDOT":0},{"OBJECT_NAME":"STARLINK-36869","OBJECT_ID":"2026-037Y","EPOCH":"2026-03-23T04:00:01.999584","MEAN_MOTION":15.50519607,"ECCENTRICITY":0.0001097,"INCLINATION":42.999,"RA_OF_ASC_NODE":117.2168,"ARG_OF_PERICENTER":284.0447,"MEAN_ANOMALY":18.0149,"EPHEMERIS_TYPE":0,"CLASSIFICATION_TYPE":"U","NORAD_CAT_ID":67954,"ELEMENT_SET_NO":999,"REV_AT_EPOCH":536,"BSTAR":0.00081842298,"MEAN_MOTION_DOT":0.00047863,"MEAN_MOTION_DDOT":0},{"OBJECT_NAME":"STARLINK-36872","OBJECT_ID":"2026-037Z","EPOCH":"2026-03-23T04:00:01.999584","MEAN_MOTION":15.57867527,"ECCENTRICITY":0.00010036,"INCLINATION":42.9992,"RA_OF_ASC_NODE":116.3496,"ARG_OF_PERICENTER":264.52,"MEAN_ANOMALY":27.8144,"EPHEMERIS_TYPE":0,"CLASSIFICATION_TYPE":"U","NORAD_CAT_ID":67955,"ELEMENT_SET_NO":999,"REV_AT_EPOCH":536,"BSTAR":-0.027814717,"MEAN_MOTION_DOT":-0.01883844,"MEAN_MOTION_DDOT":0},{"OBJECT_NAME":"STARLINK-36918","OBJECT_ID":"2026-037AA","EPOCH":"2026-03-23T04:00:01.999584","MEAN_MOTION":15.54447575,"ECCENTRICITY":0.00010751,"INCLINATION":42.999,"RA_OF_ASC_NODE":116.5285,"ARG_OF_PERICENTER":276.0107,"MEAN_ANOMALY":304.4047,"EPHEMERIS_TYPE":0,"CLASSIFICATION_TYPE":"U","NORAD_CAT_ID":67956,"ELEMENT_SET_NO":999,"REV_AT_EPOCH":536,"BSTAR":-0.031719021,"MEAN_MOTION_DOT":-0.01888814,"MEAN_MOTION_DDOT":0},{"OBJECT_NAME":"STARLINK-36829","OBJECT_ID":"2026-037AB","EPOCH":"2026-03-23T04:00:01.999584","MEAN_MOTION":15.50683978,"ECCENTRICITY":0.00010557,"INCLINATION":42.9996,"RA_OF_ASC_NODE":116.761,"ARG_OF_PERICENTER":283.2069,"MEAN_ANOMALY":203.0208,"EPHEMERIS_TYPE":0,"CLASSIFICATION_TYPE":"U","NORAD_CAT_ID":67957,"ELEMENT_SET_NO":999,"REV_AT_EPOCH":536,"BSTAR":-0.0045046287,"MEAN_MOTION_DOT":-0.00257068,"MEAN_MOTION_DDOT":0},{"OBJECT_NAME":"STARLINK-36799","OBJECT_ID":"2026-037AC","EPOCH":"2026-03-23T04:00:01.999584","MEAN_MOTION":15.60347516,"ECCENTRICITY":0.00012159,"INCLINATION":42.9997,"RA_OF_ASC_NODE":116.2082,"ARG_OF_PERICENTER":268.1306,"MEAN_ANOMALY":81.4582,"EPHEMERIS_TYPE":0,"CLASSIFICATION_TYPE":"U","NORAD_CAT_ID":67958,"ELEMENT_SET_NO":999,"REV_AT_EPOCH":536,"BSTAR":-0.025555045,"MEAN_MOTION_DOT":-0.01901645,"MEAN_MOTION_DDOT":0}]
